PIESAT C                
1 56155U 23047C   26068.57334840  .00004309  00000+0  23896-3 0  9990
2 56155  97.5027 257.1489 0001962  78.3327 281.8125 15.14301617162722
STARLINK-30790          
1 58127U 23162K   26068.22212918  .00039164  00000+0  21713-2 0  9994
2 58127  42.9975 130.2155 0010343  31.6175 328.5291 15.13105037132295
